0 COSMOS 2251 DEB
1 34130U 93036LB  13282.90271084  .00007980  00000-0  20757-2 0  2832
2 34130 074.0395 092.3143 0031922 253.7836 223.8569 14.49453017245491
0 COSMOS 2251 DEB
1 34130U 93036LB  13283.57032422  .00007714  00000-0  20003-2 0  2858
2 34130 074.0384 091.0624 0031937 252.5475 107.2682 14.49448207245598
0 COSMOS 2251 DEB
1 34130U 93036LB  13285.80048149  .00006993  00000-0  18189-2 0  2859
2 34130 074.0390 086.8780 0031861 247.9741 224.3580 14.49488338245913
0 COSMOS 2251 DEB
1 34130U 93036LB  13286.83615932  .00007698  00000-0  20009-2 0  2861
2 34130 074.0390 084.9349 0031814 245.8825 228.6100 14.49499878246064
0 COSMOS 2251 DEB
1 34130U 93036LB  13287.87207245  .00012766  00000-0  33097-2 0  2874
2 34130 074.0390 082.9913 0031778 243.8513 234.0756 14.49515311246216
0 COSMOS 2251 DEB
1 34130U 93036LB  13288.90809921  .00010570  00000-0  27414-2 0  2886
2 34130 074.0391 081.0474 0031789 241.8584 240.1674 14.49536012246361
0 COSMOS 2251 DEB
1 34130U 93036LB  13290.40919345  .00010472  00000-0  27149-2 0  2893
2 34130 074.0396 078.2309 0031687 238.7583 153.3474 14.49558999246587
0 COSMOS 2251 DEB
1 34130U 93036LB  13291.51960802  .00009377  00000-0  24312-2 0  2903
2 34130 074.0401 076.1476 0031641 236.5406 187.8546 14.49577813246742
0 COSMOS 2251 DEB
1 34130U 93036LB  13292.77169918  .00009813  00000-0  25428-2 0  2916
2 34130 074.0406 073.7985 0031550 234.0252 241.7808 14.49598156246920
0 COSMOS 2251 DEB
1 34130U 93036LB  13293.81596770  .00010640  00000-0  27552-2 0  2923
2 34130 074.0408 071.8394 0031531 231.9951 291.2063 14.49615191247075
0 COSMOS 2251 DEB
1 34130U 93036LB  13295.10619149  .00011226  00000-0  29051-2 0  2931
2 34130 074.0409 069.4187 0031458 229.3626 184.3453 14.49635622247264
0 COSMOS 2251 DEB
1 34130U 93036LB  13296.14170985  .00011432  00000-0  29569-2 0  2940
2 34130 074.0408 067.4759 0031404 227.2906 188.3099 14.49656145247415
